start=new Date('2021-12-04T00:00:00.000Z').valueOf();
sats=[{"BSTAR":"0.00031145000000","FILE":"3231740","RCS_SIZE":"LARGE","LAUNCH_DATE":"2021-04-29","MEAN_MOTION_DOT":"0.00004361","PERIAPSIS":"545.714","APOAPSIS":"548.682","CLASSIFICATION_TYPE":"U","MEAN_MOTION":"15.06405173","ECCENTRICITY":"0.00021430","SITE":"AFETR","NORAD_CAT_ID":"48313","MEAN_ANOMALY":"299.9013","OBJECT_ID":"2021-036AP","CENTER_NAME":"EARTH","ELEMENT_SET_NO":"999","TLE_LINE1":"1 48313U 21036AP  21337.45410682  .00004361  00000-0  31145-3 0  9998","DECAY_DATE":null,"REV_AT_EPOCH":"3345","ARG_OF_PERICENTER":"60.2189","EPOCH":"2021-12-03T10:53:54.829248","RA_OF_ASC_NODE":"242.3298","OBJECT_TYPE":"PAYLOAD","INCLINATION":"53.0526","SEMIMAJOR_AXIS":"6925.333","REF_FRAME":"TEME","MEAN_MOTION_DDOT":"0.0000000000000","PERIOD":"95.592","TIME_SYSTEM":"UTC","MEAN_ELEMENT_THEORY":"SGP4","GP_ID":"191012153","TLE_LINE2":"2 48313  53.0526 242.3298 0002143  60.2189 299.9013 15.06405173 33458","COUNTRY_CODE":"US","OBJECT_NAME":"STARLINK-2541","EPHEMERIS_TYPE":"0"},{"LAUNCH_DATE":"2021-04-29","MEAN_MOTION_DOT":"0.00000814","PERIAPSIS":"545.684","RCS_SIZE":"LARGE","CLASSIFICATION_TYPE":"U","APOAPSIS":"548.790","FILE":"3231910","BSTAR":"0.00007354600000","ECCENTRICITY":"0.00022430","MEAN_MOTION":"15.06392365","CENTER_NAME":"EARTH","ELEMENT_SET_NO":"999","NORAD_CAT_ID":"48314","MEAN_ANOMALY":"294.3810","SITE":"AFETR","OBJECT_ID":"2021-036AQ","RA_OF_ASC_NODE":"241.1581","EPOCH":"2021-12-03T17:10:46.428096","ARG_OF_PERICENTER":"65.7413","TLE_LINE1":"1 48314U 21036AQ  21337.71581514  .00000814  00000-0  73546-4 0  9992","REV_AT_EPOCH":"3349","DECAY_DATE":null,"SEMIMAJOR_AXIS":"6925.372","OBJECT_TYPE":"PAYLOAD","INCLINATION":"53.0543","REF_FRAME":"TEME","MEAN_MOTION_DDOT":"0.0000000000000","MEAN_ELEMENT_THEORY":"SGP4","PERIOD":"95.593","TIME_SYSTEM":"UTC","COUNTRY_CODE":"US","EPHEMERIS_TYPE":"0","OBJECT_NAME":"STARLINK-2549","GP_ID":"191038355","TLE_LINE2":"2 48314  53.0543 241.1581 0002243  65.7413 294.3810 15.06392365 33497"},{"RA_OF_ASC_NODE":"241.1712","EPOCH":"2021-12-03T17:05:28.285152","ARG_OF_PERICENTER":"67.9607","REV_AT_EPOCH":"3349","DECAY_DATE":null,"TLE_LINE1":"1 48315U 21036AR  21337.71213293  .00000512  00000-0  53287-4 0  9994","ELEMENT_SET_NO":"999","CENTER_NAME":"EARTH","OBJECT_ID":"2021-036AR","MEAN_ANOMALY":"292.1631","NORAD_CAT_ID":"48315","SITE":"AFETR","ECCENTRICITY":"0.00023510","MEAN_MOTION":"15.06389171","APOAPSIS":"548.875","CLASSIFICATION_TYPE":"U","MEAN_MOTION_DOT":"0.00000512","LAUNCH_DATE":"2021-04-29","PERIAPSIS":"545.619","RCS_SIZE":"LARGE","FILE":"3231910","BSTAR":"0.00005328700000","EPHEMERIS_TYPE":"0","OBJECT_NAME":"STARLINK-2506","COUNTRY_CODE":"US","TLE_LINE2":"2 48315  53.0556 241.1712 0002351  67.9607 292.1631 15.06389171 33495","GP_ID":"191038106","MEAN_ELEMENT_THEORY":"SGP4","PERIOD":"95.593","TIME_SYSTEM":"UTC","MEAN_MOTION_DDOT":"0.0000000000000","REF_FRAME":"TEME","SEMIMAJOR_AXIS":"6925.382","OBJECT_TYPE":"PAYLOAD","INCLINATION":"53.0556"},{"COUNTRY_CODE":"US","OBJECT_NAME":"STARLINK-2507","EPHEMERIS_TYPE":"0","GP_ID":"191011402","TLE_LINE2":"2 48316  53.0547 242.3814 0002022  66.1482 293.9719 15.06392766 33455","MEAN_ELEMENT_THEORY":"SGP4","PERIOD":"95.593","TIME_SYSTEM":"UTC","REF_FRAME":"TEME","MEAN_MOTION_DDOT":"0.0000000000000","SEMIMAJOR_AXIS":"6925.371","INCLINATION":"53.0547","OBJECT_TYPE":"PAYLOAD","ARG_OF_PERICENTER":"66.1482","EPOCH":"2021-12-03T10:38:00.017664","RA_OF_ASC_NODE":"242.3814","TLE_LINE1":"1 48316U 21036AS  21337.44305576 -.00000083  00000-0  13342-4 0  9993","DECAY_DATE":null,"REV_AT_EPOCH":"3345","CENTER_NAME":"EARTH","ELEMENT_SET_NO":"999","SITE":"AFETR","MEAN_ANOMALY":"293.9719","NORAD_CAT_ID":"48316","OBJECT_ID":"2021-036AS","ECCENTRICITY":"0.00020220","MEAN_MOTION":"15.06392766","RCS_SIZE":"LARGE","MEAN_MOTION_DOT":"-0.00000083","LAUNCH_DATE":"2021-04-29","PERIAPSIS":"545.835","APOAPSIS":"548.636","CLASSIFICATION_TYPE":"U","BSTAR":"0.00001334200000","FILE":"3231740"},{"TLE_LINE2":"2 48317  53.0549 242.3937 0002219  64.3129 295.8089 15.06397306 33456","GP_ID":"191011654","OBJECT_NAME":"STARLINK-2513","EPHEMERIS_TYPE":"0","COUNTRY_CODE":"US","PERIOD":"95.592","TIME_SYSTEM":"UTC","MEAN_ELEMENT_THEORY":"SGP4","MEAN_MOTION_DDOT":"0.0000000000000","REF_FRAME":"TEME","OBJECT_TYPE":"PAYLOAD","INCLINATION":"53.0549","SEMIMAJOR_AXIS":"6925.357","DECAY_DATE":null,"REV_AT_EPOCH":"3345","TLE_LINE1":"1 48317U 21036AT  21337.43936397  .00000781  00000-0  71371-4 0  9994","ARG_OF_PERICENTER":"64.3129","RA_OF_ASC_NODE":"242.3937","EPOCH":"2021-12-03T10:32:41.047008","OBJECT_ID":"2021-036AT","SITE":"AFETR","MEAN_ANOMALY":"295.8089","NORAD_CAT_ID":"48317","ELEMENT_SET_NO":"999","CENTER_NAME":"EARTH","MEAN_MOTION":"15.06397306","ECCENTRICITY":"0.00022190","BSTAR":"0.00007137100000","FILE":"3231740","CLASSIFICATION_TYPE":"U","APOAPSIS":"548.759","RCS_SIZE":"LARGE","MEAN_MOTION_DOT":"0.00000781","LAUNCH_DATE":"2021-04-29","PERIAPSIS":"545.685"},{"EPOCH":"2021-12-03T19:53:59.792064","RA_OF_ASC_NODE":"250.6269","ARG_OF_PERICENTER":"59.4839","REV_AT_EPOCH":"3337","DECAY_DATE":null,"TLE_LINE1":"1 48318U 21036AU  21337.82916426  .00001479  00000-0  11822-3 0  9998","ELEMENT_SET_NO":"999","CENTER_NAME":"EARTH","OBJECT_ID":"2021-036AU","NORAD_CAT_ID":"48318","MEAN_ANOMALY":"300.6361","SITE":"AFETR","ECCENTRICITY":"0.00021410","MEAN_MOTION":"15.06388969","APOAPSIS":"548.730","CLASSIFICATION_TYPE":"U","LAUNCH_DATE":"2021-04-29","PERIAPSIS":"545.765","MEAN_MOTION_DOT":"0.00001479","RCS_SIZE":"LARGE","FILE":"3231910","BSTAR":"0.00011822000000","EPHEMERIS_TYPE":"0","OBJECT_NAME":"STARLINK-2509","COUNTRY_CODE":"US","TLE_LINE2":"2 48318  53.0532 250.6269 0002141  59.4839 300.6361 15.06388969 33370","GP_ID":"191037856","MEAN_ELEMENT_THEORY":"SGP4","TIME_SYSTEM":"UTC","PERIOD":"95.593","MEAN_MOTION_DDOT":"0.0000000000000","REF_FRAME":"TEME","SEMIMAJOR_AXIS":"6925.382","OBJECT_TYPE":"PAYLOAD","INCLINATION":"53.0532"},{"INCLINATION":"53.0531","OBJECT_TYPE":"PAYLOAD","SEMIMAJOR_AXIS":"6925.352","MEAN_MOTION_DDOT":"0.0000000000000","REF_FRAME":"TEME","TIME_SYSTEM":"UTC","PERIOD":"95.592","MEAN_ELEMENT_THEORY":"SGP4","TLE_LINE2":"2 48319  53.0531 252.1382 0002260  59.9720 300.1493 15.06398781 33328","GP_ID":"191010653","EPHEMERIS_TYPE":"0","OBJECT_NAME":"STARLINK-2512","COUNTRY_CODE":"US","BSTAR":"0.00030614000000","FILE":"3231740","CLASSIFICATION_TYPE":"U","APOAPSIS":"548.782","LAUNCH_DATE":"2021-04-29","PERIAPSIS":"545.652","MEAN_MOTION_DOT":"0.00004281","RCS_SIZE":"LARGE","MEAN_MOTION":"15.06398781","ECCENTRICITY":"0.00022600","OBJECT_ID":"2021-036AV","MEAN_ANOMALY":"300.1493","NORAD_CAT_ID":"48319","SITE":"AFETR","ELEMENT_SET_NO":"999","CENTER_NAME":"EARTH","REV_AT_EPOCH":"3332","DECAY_DATE":null,"TLE_LINE1":"1 48319U 21036AV  21337.49373755  .00004281  00000-0  30614-3 0  9998","RA_OF_ASC_NODE":"252.1382","EPOCH":"2021-12-03T11:50:58.924320","ARG_OF_PERICENTER":"59.9720"},{"REV_AT_EPOCH":"3333","DECAY_DATE":null,"TLE_LINE1":"1 48320U 21036AW  21337.55639167  .00000207  00000-0  32807-4 0  9990","RA_OF_ASC_NODE":"251.8489","EPOCH":"2021-12-03T13:21:12.240288","ARG_OF_PERICENTER":"58.5213","OBJECT_ID":"2021-036AW","NORAD_CAT_ID":"48320","MEAN_ANOMALY":"301.5995","SITE":"AFETR","ELEMENT_SET_NO":"999","CENTER_NAME":"EARTH","MEAN_MOTION":"15.06393821","ECCENTRICITY":"0.00022380","BSTAR":"0.00003280700000","FILE":"3231740","APOAPSIS":"548.782","CLASSIFICATION_TYPE":"U","PERIAPSIS":"545.683","LAUNCH_DATE":"2021-04-29","MEAN_MOTION_DOT":"0.00000207","RCS_SIZE":"LARGE","TLE_LINE2":"2 48320  53.0538 251.8489 0002238  58.5213 301.5995 15.06393821 33331","GP_ID":"191010903","EPHEMERIS_TYPE":"0","OBJECT_NAME":"STARLINK-2029","COUNTRY_CODE":"US","TIME_SYSTEM":"UTC","PERIOD":"95.593","MEAN_ELEMENT_THEORY":"SGP4","MEAN_MOTION_DDOT":"0.0000000000000","REF_FRAME":"TEME","OBJECT_TYPE":"PAYLOAD","INCLINATION":"53.0538","SEMIMAJOR_AXIS":"6925.367"},{"ARG_OF_PERICENTER":"60.7417","RA_OF_ASC_NODE":"250.9745","EPOCH":"2021-12-03T18:02:31.320960","TLE_LINE1":"1 48321U 21036AX  21337.75175140  .00000649  00000-0  62499-4 0  9999","DECAY_DATE":null,"REV_AT_EPOCH":"3336","CENTER_NAME":"EARTH","ELEMENT_SET_NO":"999","SITE":"AFETR","MEAN_ANOMALY":"299.3794","NORAD_CAT_ID":"48321","OBJECT_ID":"2021-036AX","ECCENTRICITY":"0.00022230","MEAN_MOTION":"15.06393007","RCS_SIZE":"LARGE","LAUNCH_DATE":"2021-04-29","MEAN_MOTION_DOT":"0.00000649","PERIAPSIS":"545.695","APOAPSIS":"548.775","CLASSIFICATION_TYPE":"U","FILE":"3231910","BSTAR":"0.00006249900000","COUNTRY_CODE":"US","OBJECT_NAME":"STARLINK-2457","EPHEMERIS_TYPE":"0","GP_ID":"191039608","TLE_LINE2":"2 48321  53.0548 250.9745 0002223  60.7417 299.3794 15.06393007 33363","MEAN_ELEMENT_THEORY":"SGP4","PERIOD":"95.593","TIME_SYSTEM":"UTC","REF_FRAME":"TEME","MEAN_MOTION_DDOT":"0.0000000000000","SEMIMAJOR_AXIS":"6925.370","INCLINATION":"53.0548","OBJECT_TYPE":"PAYLOAD"},{"TLE_LINE2":"2 48322  53.0542 252.1796 0002070  65.4581 294.6624 15.06398145 33326","GP_ID":"191011905","EPHEMERIS_TYPE":"0","OBJECT_NAME":"STARLINK-2477","COUNTRY_CODE":"US","PERIOD":"95.592","TIME_SYSTEM":"UTC","MEAN_ELEMENT_THEORY":"SGP4","MEAN_MOTION_DDOT":"0.0000000000000","REF_FRAME":"TEME","OBJECT_TYPE":"PAYLOAD","INCLINATION":"53.0542","SEMIMAJOR_AXIS":"6925.354","REV_AT_EPOCH":"3332","DECAY_DATE":null,"TLE_LINE1":"1 48322U 21036AY  21337.48268060  .00004236  00000-0  30312-3 0  9998","RA_OF_ASC_NODE":"252.1796","EPOCH":"2021-12-03T11:35:03.603840","ARG_OF_PERICENTER":"65.4581","OBJECT_ID":"2021-036AY","MEAN_ANOMALY":"294.6624","NORAD_CAT_ID":"48322","SITE":"AFETR","ELEMENT_SET_NO":"999","CENTER_NAME":"EARTH","MEAN_MOTION":"15.06398145","ECCENTRICITY":"0.00020700","FILE":"3231740","BSTAR":"0.00030312000000","CLASSIFICATION_TYPE":"U","APOAPSIS":"548.653","LAUNCH_DATE":"2021-04-29","PERIAPSIS":"545.786","MEAN_MOTION_DOT":"0.00004236","RCS_SIZE":"LARGE"}];
